INTELSAT 902 (IS-902)   
1 26900U 01039A   26170.52657541 -.00000291  00000+0  00000+0 0  9992
2 26900   6.1228  71.7552 0004288  13.6094 321.8523  1.00271168 90717
INTELSAT 904 (IS-904)   
1 27380U 02007A   26170.10252515 -.00000234  00000+0  00000+0 0  9994
2 27380   6.9257  69.1626 0006550   6.6050 196.9688  1.00270224 51780
DIRECTV 5 (TEMPO 1)     
1 27426U 02023A   26170.87111515 -.00000064  00000+0  00000+0 0  9992
2 27426   4.8857  75.2784 0003208  15.2382  21.0600  1.00271878 88157
INTELSAT 905 (IS-905)   
1 27438U 02027A   26170.79445240  .00000086  00000+0  00000+0 0  9998
2 27438   6.7611  69.7702 0003944  23.1204 323.9079  1.00272608 51386
GALAXY 3C (G-3C)        
1 27445U 02030A   26170.87414850 -.00000159  00000+0  00000+0 0  9994
2 27445   3.7400  77.9423 0001655  28.5019  21.4909  1.00271489 46526
INTELSAT 906 (IS-906)   
1 27513U 02041A   26170.83436785  .00000006  00000+0  00000+0 0  9999
2 27513   5.8089  72.8895 0004443   0.6534 199.0349  1.00270622 87057
GALAXY 13 (HORIZONS-1)  
1 27954U 03044A   26170.72068679  .00000126  00000+0  00000+0 0  9996
2 27954   1.4254  83.8328 0002201 357.1417 296.4018  1.00272160 46593
INTELSAT 10-02          
1 28358U 04022A   26170.74989359 -.00000017  00000+0  00000+0 0  9991
2 28358   0.0182 302.6837 0000046 156.2032  78.0359  1.00270607 80583
DIRECTV 8               
1 28659U 05019A   26170.86929515  .00000000  00000+0  00000+0 0  9994
2 28659   0.0194  18.5279 0003087  76.0345   7.4239  1.00270206 77109
GALAXY 28 (G-28)        
1 28702U 05022A   26170.42610212 -.00000207  00000+0  00000+0 0  9990
2 28702   3.3039  78.9069 0002827   9.3149 305.7445  1.00270893 51995
GALAXY 16 (G-16)        
1 29236U 06023A   26170.65951870 -.00000133  00000+0  00000+0 0  9996
2 29236   0.0205 113.6190 0002555 332.5127 320.1721  1.00271531 72995
DIRECTV 9S              
1 29494U 06043A   26170.87293516 -.00000119  00000+0  00000+0 0  9998
2 29494   2.4288  80.8735 0005042  14.1534  26.1210  1.00271149 51412
GALAXY 17 (G-17)        
1 31307U 07016B   26170.87614184 -.00000212  00000+0  00000+0 0  9997
2 31307   2.9800  79.8692 0004741  19.3946  39.2278  1.00271485 69839
INTELSAT 11 (IS-11)     
1 32253U 07044B   26170.84330759 -.00000182  00000+0  00000+0 0  9995
2 32253   3.5734  78.6392 0002507  87.5726 159.6309  0.99049706 68475
HORIZONS-2              
1 32388U 07063B   26170.57961649 -.00000260  00000+0  00000+0 0  9990
2 32388   2.6093  80.5954 0003887 359.3948 322.6607  1.00272990 67834
DIRECTV 11              
1 32729U 08013A   26170.65943204 -.00000131  00000+0  00000+0 0  9998
2 32729   0.0347 203.6575 0000168 208.5853 353.8555  1.00271162 45613
GALAXY 18 (G-18)        
1 32951U 08024A   26170.72606015  .00000019  00000+0  00000+0 0  9995
2 32951   0.0208  66.5498 0002893  20.6383 319.1363  1.00271107 45873
INTELSAT 25 (IS-25)     
1 33153U 08034A   26170.85025197 -.00000151  00000+0  00000+0 0  9999
2 33153   2.7179  80.3432 0003551  60.5901 183.0165  0.99033663 65710
GALAXY 19 (G-19)        
1 33376U 08045A   26170.87380183 -.00000145  00000+0  00000+0 0  9992
2 33376   0.0292 263.7976 0002591 190.5312  31.3330  1.00271214 64938
FM-5                    
1 35493U 09034A   26170.87588184 -.00000206  00000+0  00000+0 0  9992
2 35493   0.0201 291.8802 0000922  26.0420 179.3265  1.00272378 46672
INTELSAT 14 (IS-14)     
1 36097U 09064A   26170.96753156 -.00000279  00000+0  00000+0 0  9999
2 36097   0.0154 331.8636 0002376 115.8649 123.7731  1.00271631 60639
INTELSAT 15 (IS-15)     
1 36106U 09067A   26170.83852833 -.00000191  00000+0  00000+0 0  9994
2 36106   0.0178 347.8664 0002175 101.4969 205.7098  1.00272177 41257
DIRECTV 12              
1 36131U 09075A   26170.65873870 -.00000109  00000+0  00000+0 0  9994
2 36131   0.0448 170.4501 0000286 291.6356 300.2141  1.00270604 46571
INTELSAT 16 (IS-16)     
1 36397U 10006A   26170.87787519 -.00000250  00000+0  00000+0 0  9999
2 36397   0.0100 348.5640 0002025 114.1436  45.2174  1.00272172 59683
XM-5                    
1 37185U 10053A   26170.87007515 -.00000029  00000+0  00000+0 0  9992
2 37185   0.0621 272.5050 0002614 289.0621 264.5493  1.00271285 57514
INTELSAT 17 (IS-17)     
1 37238U 10065B   26170.83471451 -.00000007  00000+0  00000+0 0  9990
2 37238   0.0051 107.5108 0002668   0.9204 166.1133  1.00272226 53270
INTELSAT 28 (IS-28)     
1 37392U 11016A   26170.81533916 -.00000231  00000+0  00000+0 0  9990
2 37392   1.8141  82.5909 0003689   7.0885  80.1568  1.00271341 53317
INTELSAT 18 (IS-18)     
1 37834U 11056A   26170.78604568  .00000047  00000+0  00000+0 0  9997
2 37834   0.0352 273.5202 0001787 176.0431 281.4079  1.00271427 53837
INTELSAT 22 (IS-22)     
1 38098U 12011A   26170.80731207 -.00000064  00000+0  00000+0 0  9996
2 38098   0.0163  44.8823 0001531  48.3798 177.5022  1.00272456  7219
INTELSAT 19 (IS-19)     
1 38356U 12030A   26170.85456175 -.00000062  00000+0  00000+0 0  9995
2 38356   0.0163  19.2178 0002997  77.7585 284.7306  1.00271664 50474
INTELSAT 20 (IS-20)     
1 38740U 12043A   26170.94010913  .00000000  00000+0  00000+0 0  9993
2 38740   0.0364  68.6209 0001684 109.0024 137.4637  1.00270134 50771
